ONEWEB-0309             
1 49095U 21075W   24034.86012063 -.00000009  00000+0 -56039-4 0  9998
2 49095  87.9240 177.7453 0001317  72.6137 287.5138 13.17649090120749
ONEWEB-0310             
1 49096U 21075X   24034.40137948  .00000158  00000+0  40320-3 0  9997
2 49096  87.9045 162.7342 0001587  96.9176 263.2133 13.12443361121751
ONEWEB-0311             
1 49097U 21075Y   24034.86643228  .00000015  00000+0  43834-5 0  9998
2 49097  87.9239 177.7447 0001140 116.6420 243.4828 13.17651269120805
ONEWEB-0312             
1 49098U 21075Z   24034.88067055 -.00000282  00000+0 -76013-3 0  9990
2 49098  87.9238 177.7750 0001001  89.3291 270.7955 13.17649042120765
ONEWEB-0313             
1 49099U 21075AA  24034.85853709  .00000023  00000+0  25636-4 0  9994
2 49099  87.9239 177.7809 0001123  94.6566 265.4694 13.17648636120771
ONEWEB-0314             
1 49100U 21075AB  24034.85219923  .00000029  00000+0  41358-4 0  9996
2 49100  87.9236 177.7452 0000939  95.3993 264.7245 13.17649960120732
ONEWEB-0315             
1 49101U 21075AC  24034.37598122 -.00000385  00000+0 -11056-2 0  9992
2 49101  87.9032 162.7385 0001598 108.2650 251.8653 13.12443083121736
ONEWEB-0316             
1 49102U 21075AD  24034.85026241  .00000007  00000+0 -14217-4 0  9998
2 49102  87.9252 147.4651 0001507 112.8312 247.2979 13.18684077124305
